NORAD_CAT_ID,OBJECT_NAME,OBJECT_TYPE,EPOCH,MEAN_MOTION,ECCENTRICITY,INCLINATION,RA_OF_ASC_NODE,ARG_OF_PERICENTER,MEAN_ANOMALY,BSTAR,MEAN_MOTION_DOT,MEAN_MOTION_DDOT,TLE_LINE0,TLE_LINE1,TLE_LINE2,SEMIMAJOR_AXIS,PERIOD,APOGEE,PERIGEE,DECAYED
54162.0,STARLINK-5273,PAYLOAD,2024-08-12 19:54:33,15.08850204,2.9e-05,53.2179,70.2952,40.4076,319.6938,0.00077932,0.0001214,0.0,0 STARLINK-5273,1 54162U 22141F   24225.82955570  .00012140  00000-0  77932-3 0  9993,2 54162  53.2179  70.2952 0000290  40.4076 319.6938 15.08850204 99082,6917.849,95.437,539.915,539.514,0.0
54162.0,STARLINK-5273,PAYLOAD,2024-08-13 07:02:15,15.08858644,9.55e-05,53.2181,68.215,54.7042,305.4039,0.0008534,0.00013327,0.0,0 STARLINK-5273,1 54162U 22141F   24226.29323305  .00013327  00000-0  85340-3 0  9990,2 54162  53.2181  68.2150 0000955  54.7042 305.4039 15.08858644 99150,6917.823,95.436,540.349,539.028,0.0
54162.0,STARLINK-5273,PAYLOAD,2024-08-13 19:45:23,15.08764436,0.00021,53.2192,65.836,88.2631,271.8602,0.0006415,9.915e-05,0.0,0 STARLINK-5273,1 54162U 22141F   24226.82318708  .00009915  00000-0  64150-3 0  9994,2 54162  53.2192  65.8360 0002100  88.2631 271.8602 15.08764436 99234,6918.111,95.442,541.429,538.524,0.0
54162.0,STARLINK-5273,PAYLOAD,2024-08-13 22:56:10,15.08764331,0.0002445,53.2151,65.2425,83.3619,276.7651,0.00099108,0.00015488,0.0,0 STARLINK-5273,1 54162U 22141F   24226.95567460  .00015488  00000-0  99108-3 0  9992,2 54162  53.2151  65.2425 0002445  83.3619 276.7651 15.08764331 99253,6918.112,95.442,541.668,538.285,0.0
54162.0,STARLINK-5273,PAYLOAD,2024-08-14 06:53:05,15.08827551,0.0001132,53.2186,63.7544,89.2844,270.8278,0.0013436,0.00021153,0.0,0 STARLINK-5273,1 54162U 22141F   24227.28687331  .00021153  00000-0  13436-2 0  9994,2 54162  53.2186  63.7544 0001132  89.2844 270.8278 15.08827551 99303,6917.918,95.438,540.567,539.0,0.0
54162.0,STARLINK-5273,PAYLOAD,2024-08-14 19:36:10,15.08870261,0.0001367,53.2172,61.3746,68.3039,291.8098,0.0016476,0.00026053,0.0,0 STARLINK-5273,1 54162U 22141F   24227.81678835  .00026053  00000-0  16476-2 0  9993,2 54162  53.2172  61.3746 0001367  68.3039 291.8098 15.08870261 99387,6917.788,95.436,540.599,538.707,0.0
54162.0,STARLINK-5273,PAYLOAD,2024-08-14 21:11:33,15.08887503,0.0001572,53.2178,61.0777,69.4737,290.6423,0.0018895,0.00029951,0.0,0 STARLINK-5273,1 54162U 22141F   24227.88302494  .00029951  00000-0  18895-2 0  9992,2 54162  53.2178  61.0777 0001572  69.4737 290.6423 15.08887503 99396,6917.735,95.435,540.688,538.513,0.0
54162.0,STARLINK-5273,PAYLOAD,2024-08-15 19:26:56,15.08873876,7.75e-05,53.2179,56.9148,91.3023,268.8058,0.0012838,0.00020222,0.0,0 STARLINK-5273,1 54162U 22141F   24228.81037358  .00020222  00000-0  12838-2 0  9993,2 54162  53.2179  56.9148 0000775  91.3023 268.8058 15.08873876 99533,6917.777,95.435,540.178,539.106,0.0
54162.0,STARLINK-5273,PAYLOAD,2024-08-17 12:46:58,15.08859076,5.55e-05,53.2177,49.1822,37.8322,322.2709,0.00084523,0.00013197,0.0,0 STARLINK-5273,1 54162U 22141F   24230.53261658  .00013197  00000-0  84523-3 0  9991,2 54162  53.2177  49.1822 0000555  37.8322 322.2709 15.08859076 99799,6917.822,95.436,540.071,539.303,0.0
54162.0,STARLINK-5273,PAYLOAD,2024-08-17 20:43:53,15.08843288,9.99e-05,53.2176,47.697,81.7789,278.3316,0.00082803,0.00012916,0.0,0 STARLINK-5273,1 54162U 22141F   24230.86381684  .00012916  00000-0  82803-3 0  9996,2 54162  53.2176  47.6970 0000999  81.7789 278.3316 15.08843288 99841,6917.87,95.437,540.426,539.044,0.0
54162.0,STARLINK-5273,PAYLOAD,2024-08-18 20:34:40,15.08842405,0.0001184,53.2179,43.2362,88.7811,271.3316,0.00023964,3.528e-05,0.0,0 STARLINK-5273,1 54162U 22141F   24231.85741807  .00003528  00000-0  23964-3 0  9995,2 54162  53.2179  43.2362 0001184  88.7811 271.3316 15.08842405 99990,6917.873,95.437,540.557,538.919,0.0
54162.0,STARLINK-5273,PAYLOAD,2024-08-19 04:31:36,15.08855098,0.0001037,53.2175,41.7497,88.8748,271.2363,0.0004262,6.504e-05,0.0,0 STARLINK-5273,1 54162U 22141F   24232.18861194  .00006504  00000-0  42620-3 0  9991,2 54162  53.2175  41.7497 0001037  88.8748 271.2363 15.08855098100047,6917.834,95.437,540.417,538.982,0.0
54162.0,STARLINK-5273,PAYLOAD,2024-08-20 04:22:22,15.08858087,9.09e-05,53.217,37.2852,84.2376,275.872,0.00028993,4.332e-05,0.0,0 STARLINK-5273,1 54162U 22141F   24233.18220330  .00004332  00000-0  28993-3 0  9997,2 54162  53.2170  37.2852 0000909  84.2376 275.8720 15.08858087100195,6917.825,95.436,540.319,539.061,0.0
54162.0,STARLINK-5273,PAYLOAD,2024-08-20 18:40:50,15.0883416,0.0001234,53.2168,34.6116,80.8187,279.2945,1.5895e-05,-3.5e-07,0.0,0 STARLINK-5273,1 54162U 22141F   24233.77836786 -.00000035  00000-0  15895-4 0  9995,2 54162  53.2168  34.6116 0001234  80.8187 279.2945 15.08834160100283,6917.898,95.438,540.617,538.91,0.0
54162.0,STARLINK-5273,PAYLOAD,2024-08-21 16:56:15,15.0883266,0.0001379,53.2179,30.4505,73.6982,286.4161,0.00045344,6.934e-05,0.0,0 STARLINK-5273,1 54162U 22141F   24234.70574060  .00006934  00000-0  45344-3 0  9997,2 54162  53.2179  30.4505 0001379  73.6982 286.4161 15.08832660100423,6917.903,95.438,540.722,538.814,0.0
54162.0,STARLINK-5273,PAYLOAD,2024-08-21 20:07:02,15.08834616,0.0001356,53.218,29.8547,76.182,283.9323,0.00045302,6.928e-05,0.0,0 STARLINK-5273,1 54162U 22141F   24234.83822073  .00006928  00000-0  45302-3 0  9998,2 54162  53.2180  29.8547 0001356  76.1820 283.9323 15.08834616100444,6917.897,95.438,540.7,538.824,0.0
